[{"OBJECT_ID":"1976-023J","OBJECT_NAME":"TITAN 3C TRANSTAGE DEB","NORAD_CAT_ID":"8832","OBJECT_TYPE":"DEBRIS","PERIOD":"1465.499","INCLINATION":"18.1594","ECCENTRICITY":"0.01439040","MEAN_MOTION":"0.98260021","TLE_LINE1":"1  8832U 76023J   21272.06732738 -.00000047  00000-0  00000+0 0  9990","TLE_LINE2":"2  8832  18.1594  64.8052 0143904  46.8301 317.2395  0.98260021100671"},{"OBJECT_ID":"1989-101G","OBJECT_NAME":"COSMOS 2054 DEB","NORAD_CAT_ID":"21648","OBJECT_TYPE":"DEBRIS","PERIOD":"1471.629","INCLINATION":"14.9825","ECCENTRICITY":"0.00245780","MEAN_MOTION":"0.97850753","TLE_LINE1":"1 21648U 89101G   21270.57829828 -.00000147  00000-0  00000+0 0  9993","TLE_LINE2":"2 21648  14.9825 350.4122 0024578 276.9502  73.8040  0.97850753 99235"},{"OBJECT_ID":"2000-024E","OBJECT_NAME":"USA 149 DEB","NORAD_CAT_ID":"28156","OBJECT_TYPE":"DEBRIS","PERIOD":"1443.915","INCLINATION":"12.4385","ECCENTRICITY":"0.01904080","MEAN_MOTION":"0.99728874","TLE_LINE1":"1 28156U 00024E   21271.07109363 -.00000212  00000-0  00000+0 0  9995","TLE_LINE2":"2 28156  12.4385  23.0625 0190408 168.0670 192.4191  0.99728874  7474"},{"OBJECT_ID":"1968-081Q","OBJECT_NAME":"TITAN 3C TRANSTAGE DEB","NORAD_CAT_ID":"38690","OBJECT_TYPE":"DEBRIS","PERIOD":"1449.701","INCLINATION":"3.8042","ECCENTRICITY":"0.02687700","MEAN_MOTION":"0.99330838","TLE_LINE1":"1 38690U 68081Q   21271.94578142 -.00000324  00000-0  00000+0 0  9991","TLE_LINE2":"2 38690   3.8042 312.5260 0268770   4.4822 355.5954  0.99330838 62001"},{"OBJECT_ID":"1968-081V","OBJECT_NAME":"TITAN 3C TRANSTAGE DEB","NORAD_CAT_ID":"38695","OBJECT_TYPE":"DEBRIS","PERIOD":"1449.177","INCLINATION":"3.4721","ECCENTRICITY":"0.04678730","MEAN_MOTION":"0.99366712","TLE_LINE1":"1 38695U 68081V   21266.90723215 -.00000030  00000-0  00000+0 0  9993","TLE_LINE2":"2 38695   3.4721 315.1494 0467873 311.5862 133.6063  0.99366712 46171"},{"OBJECT_ID":"1968-081W","OBJECT_NAME":"TITAN 3C TRANSTAGE DEB","NORAD_CAT_ID":"38696","OBJECT_TYPE":"DEBRIS","PERIOD":"1447.359","INCLINATION":"3.4261","ECCENTRICITY":"0.02183750","MEAN_MOTION":"0.99491556","TLE_LINE1":"1 38696U 68081W   21252.18224161 -.00000086  00000-0  00000+0 0  9996","TLE_LINE2":"2 38696   3.4261 314.5458 0218375 319.1163  39.9316  0.99491556 49664"},{"OBJECT_ID":"1969-013C","OBJECT_NAME":"TITAN 3C TRANSTAGE DEB","NORAD_CAT_ID":"43282","OBJECT_TYPE":"DEBRIS","PERIOD":"1575.318","INCLINATION":"2.9193","ECCENTRICITY":"0.02843820","MEAN_MOTION":"0.91410143","TLE_LINE1":"1 43282U 69013C   21272.42005564 -.00000179  00000-0  00000+0 0  9995","TLE_LINE2":"2 43282   2.9193 300.3018 0284382 329.6884  28.3983  0.91410143 11858"},{"OBJECT_ID":"1969-013D","OBJECT_NAME":"TITAN 3C TRANSTAGE DEB","NORAD_CAT_ID":"43283","OBJECT_TYPE":"DEBRIS","PERIOD":"1546.738","INCLINATION":"3.3656","ECCENTRICITY":"0.03165140","MEAN_MOTION":"0.93099130","TLE_LINE1":"1 43283U 69013D   21271.16883069 -.00000158  00000-0  00000-0 0  9998","TLE_LINE2":"2 43283   3.3656 281.4375 0316514 283.1442  73.0045  0.93099130 12049"},{"OBJECT_ID":"1969-013E","OBJECT_NAME":"TITAN 3C TRANSTAGE DEB","NORAD_CAT_ID":"43284","OBJECT_TYPE":"DEBRIS","PERIOD":"1480.997","INCLINATION":"3.2230","ECCENTRICITY":"0.01501540","MEAN_MOTION":"0.97231815","TLE_LINE1":"1 43284U 69013E   21272.20362245 -.00000138  00000-0  00000+0 0  9990","TLE_LINE2":"2 43284   3.2230 288.1104 0150154 168.9594 191.0565  0.97231815 12551"},{"OBJECT_ID":"1969-013F","OBJECT_NAME":"TITAN 3C TRANSTAGE DEB","NORAD_CAT_ID":"43285","OBJECT_TYPE":"DEBRIS","PERIOD":"1541.815","INCLINATION":"3.4951","ECCENTRICITY":"0.03675480","MEAN_MOTION":"0.93396403","TLE_LINE1":"1 43285U 69013F   21271.51972543 -.00000118  00000-0  00000+0 0  9990","TLE_LINE2":"2 43285   3.4951 276.5006 0367548 283.9570  71.6283  0.93396403 12017"},{"OBJECT_ID":"1969-013G","OBJECT_NAME":"TITAN 3C TRANSTAGE DEB","NORAD_CAT_ID":"43447","OBJECT_TYPE":"DEBRIS","PERIOD":"1482.391","INCLINATION":"3.2885","ECCENTRICITY":"0.01425700","MEAN_MOTION":"0.97140388","TLE_LINE1":"1 43447U 69013G   21270.35719104 -.00000261  00000-0  00000-0 0  9993","TLE_LINE2":"2 43447   3.2885 285.6687 0142570 158.2552 202.0138  0.97140388 12525"},{"OBJECT_ID":"1969-013H","OBJECT_NAME":"TITAN 3C TRANSTAGE DEB","NORAD_CAT_ID":"43448","OBJECT_TYPE":"DEBRIS","PERIOD":"1459.091","INCLINATION":"3.4991","ECCENTRICITY":"0.03059780","MEAN_MOTION":"0.98691579","TLE_LINE1":"1 43448U 69013H   21271.22103695 -.00000121  00000-0  00000+0 0  9997","TLE_LINE2":"2 43448   3.4991 279.1167 0305978 199.3858 159.0982  0.98691579 12527"},{"OBJECT_ID":"1969-013J","OBJECT_NAME":"TITAN 3C TRANSTAGE DEB","NORAD_CAT_ID":"43449","OBJECT_TYPE":"DEBRIS","PERIOD":"1490.845","INCLINATION":"3.1743","ECCENTRICITY":"0.01391170","MEAN_MOTION":"0.96589535","TLE_LINE1":"1 43449U 69013J   21271.57602554 -.00000073  00000-0  00000+0 0  9990","TLE_LINE2":"2 43449   3.1743 289.9063 0139117 189.3865 170.0224  0.96589535 12204"},{"OBJECT_ID":"1969-013N","OBJECT_NAME":"TITAN 3C TRANSTAGE DEB","NORAD_CAT_ID":"43455","OBJECT_TYPE":"DEBRIS","PERIOD":"1530.145","INCLINATION":"4.0805","ECCENTRICITY":"0.03052810","MEAN_MOTION":"0.94108752","TLE_LINE1":"1 43455U 69013N   21271.16002051 -.00000167  00000-0  00000+0 0  9992","TLE_LINE2":"2 43455   4.0805 267.1462 0305281 290.6559  65.8499  0.94108752 12137"},{"OBJECT_ID":"1969-013R","OBJECT_NAME":"TITAN 3C TRANSTAGE DEB","NORAD_CAT_ID":"43513","OBJECT_TYPE":"DEBRIS","PERIOD":"1511.638","INCLINATION":"3.9273","ECCENTRICITY":"0.00375340","MEAN_MOTION":"0.95260895","TLE_LINE1":"1 43513U 69013R   21270.89123859 -.00000098  00000-0  00000+0 0  9999","TLE_LINE2":"2 43513   3.9273 269.9515 0037534  95.6321 264.5093  0.95260895 11967"},{"OBJECT_ID":"1969-013S","OBJECT_NAME":"TITAN 3C TRANSTAGE DEB","NORAD_CAT_ID":"43514","OBJECT_TYPE":"DEBRIS","PERIOD":"1472.336","INCLINATION":"3.1032","ECCENTRICITY":"0.01958100","MEAN_MOTION":"0.97803754","TLE_LINE1":"1 43514U 69013S   21271.67317871 -.00000050  00000-0  00000+0 0  9994","TLE_LINE2":"2 43514   3.1032 294.7695 0195810 158.3434 202.1760  0.97803754 12219"},{"OBJECT_ID":"1969-013T","OBJECT_NAME":"TITAN 3C TRANSTAGE DEB","NORAD_CAT_ID":"43515","OBJECT_TYPE":"DEBRIS","PERIOD":"1508.772","INCLINATION":"3.0110","ECCENTRICITY":"0.03151940","MEAN_MOTION":"0.95441848","TLE_LINE1":"1 43515U 69013T   21271.62486243 -.00000102  00000-0  00000+0 0  9998","TLE_LINE2":"2 43515   3.0110 298.6182 0315194 234.0908 122.6025  0.95441848 11788"},{"OBJECT_ID":"1969-013U","OBJECT_NAME":"TITAN 3C TRANSTAGE DEB","NORAD_CAT_ID":"43516","OBJECT_TYPE":"DEBRIS","PERIOD":"1492.062","INCLINATION":"3.0900","ECCENTRICITY":"0.01018150","MEAN_MOTION":"0.96510729","TLE_LINE1":"1 43516U 69013U   21271.63270272 -.00000084  00000-0  00000+0 0  9992","TLE_LINE2":"2 43516   3.0900 294.5211 0101815 133.3526 227.1845  0.96510729 11893"},{"OBJECT_ID":"1969-013V","OBJECT_NAME":"TITAN 3C TRANSTAGE DEB","NORAD_CAT_ID":"43517","OBJECT_TYPE":"DEBRIS","PERIOD":"1526.651","INCLINATION":"3.6148","ECCENTRICITY":"0.00836200","MEAN_MOTION":"0.94324127","TLE_LINE1":"1 43517U 69013V   21256.29846663 -.00000135  00000-0  00000-0 0  9999","TLE_LINE2":"2 43517   3.6148 276.7238 0083620 341.9833  17.4625  0.94324127 11457"},{"OBJECT_ID":"2019-009E","OBJECT_NAME":"S5 DEB","NORAD_CAT_ID":"44066","OBJECT_TYPE":"DEBRIS","PERIOD":"1454.745","INCLINATION":"2.1661","ECCENTRICITY":"0.00113800","MEAN_MOTION":"0.98986404","TLE_LINE1":"1 44066U 19009E   21270.88155131 -.00000234  00000-0  00000+0 0  9992","TLE_LINE2":"2 44066   2.1661  90.3010 0011380  95.9383 264.7306  0.98986404  9309"}]